{"type": "FeatureCollection", "features": [ {"type": "Feature", "properties": {"norad_id": 39122, "name": "EUTELSAT 117 WEST A", "group": "eutelsat", "lat": 0.028365149189327112, "lon": 117.40658652698563, "alt_km": 35795.17406088877, "timestamp": "2025-12-02T10:50:46.944818+00:00", "meta": {"OBJECT_NAME": "EUTELSAT 117 WEST A", "OBJECT_ID": "2013-012A", "EPOCH": "2025-12-02T02:57:25.216992", "MEAN_MOTION": 1.00271769, "ECCENTRICITY": 0.000309, "INCLINATION": 0.0337, "RA_OF_ASC_NODE": 50.9241, "ARG_OF_PERICENTER": 200.5803, "MEAN_ANOMALY": 107.2915, "EPHEMERIS_TYPE": 0, "CLASSIFICATION_TYPE": "U", "NORAD_CAT_ID": 39122, "ELEMENT_SET_NO": 999, "REV_AT_EPOCH": 4645, "BSTAR": 0, "MEAN_MOTION_DOT": 8e-08, "MEAN_MOTION_DDOT": 0}, "tle": {"line1": "1 39122U 13012A   25336.12320853  .00000008  00000+0  00000+0 0  9993", "line2": "2 39122   0.0337  50.9241 0003090 200.5803 107.2915  1.00271769 46450"}}, "geometry": {"type": "Point", "coordinates": [117.40658652698563, 0.028365149189327112]}}, {"type": "Feature", "properties": {"norad_id": 39163, "name": "EUTELSAT 7B", "group": "eutelsat", "lat": -0.08128231757254803, "lon": -118.81184228377828, "alt_km": 35779.780749063015, "timestamp": "2025-12-02T10:50:46.944830+00:00", "meta": {"OBJECT_NAME": "EUTELSAT 7B", "OBJECT_ID": "2013-022A", "EPOCH": "2025-12-02T03:32:42.105120", "MEAN_MOTION": 1.00272256, "ECCENTRICITY": 0.0004285, "INCLINATION": 0.0675, "RA_OF_ASC_NODE": 356.6053, "ARG_OF_PERICENTER": 314.7831, "MEAN_ANOMALY": 180.0536, "EPHEMERIS_TYPE": 0, "CLASSIFICATION_TYPE": "U", "NORAD_CAT_ID": 39163, "ELEMENT_SET_NO": 999, "REV_AT_EPOCH": 4598, "BSTAR": 0, "MEAN_MOTION_DOT": 6.9e-07, "MEAN_MOTION_DDOT": 0}, "tle": {"line1": "1 39163U 13022A   25336.14770955  .00000069  00000+0  00000+0 0  9990", "line2": "2 39163   0.0675 356.6053 0004285 314.7831 180.0536  1.00272256 45980"}}, "geometry": {"type": "Point", "coordinates": [-118.81184228377828, -0.08128231757254803]}}, {"type": "Feature", "properties": {"norad_id": 39612, "name": "EXPRESS-AT1", "group": "eutelsat", "lat": -4.197013794940876e-05, "lon": -69.76373052962546, "alt_km": 35787.99215727052, "timestamp": "2025-12-02T10:50:46.944842+00:00", "meta": {"OBJECT_NAME": "EXPRESS-AT1", "OBJECT_ID": "2014-010A", "EPOCH": "2025-12-02T03:46:40.765728", "MEAN_MOTION": 1.0026954, "ECCENTRICITY": 3.96e-05, "INCLINATION": 0.0131, "RA_OF_ASC_NODE": 275.0216, "ARG_OF_PERICENTER": 233.472, "MEAN_ANOMALY": 35.4546, "EPHEMERIS_TYPE": 0, "CLASSIFICATION_TYPE": "U", "NORAD_CAT_ID": 39612, "ELEMENT_SET_NO": 999, "REV_AT_EPOCH": 4284, "BSTAR": 0, "MEAN_MOTION_DOT": 1e-06, "MEAN_MOTION_DDOT": 0}, "tle": {"line1": "1 39612U 14010A   25336.15741627  .00000100  00000+0  00000+0 0  9998", "line2": "2 39612   0.0131 275.0216 0000396 233.4720  35.4546  1.00269540 42842"}}, "geometry": {"type": "Point", "coordinates": [-69.76373052962546, -4.197013794940876e-05]}}, {"type": "Feature", "properties": {"norad_id": 39613, "name": "EXPRESS-AT2", "group": "eutelsat", "lat": 0.03801324402703333, "lon": 14.102492899869095, "alt_km": 35785.673081708046, "timestamp": "2025-12-02T10:50:46.944854+00:00", "meta": {"OBJECT_NAME": "EXPRESS-AT2", "OBJECT_ID": "2014-010B", "EPOCH": "2025-12-02T04:10:27.757632", "MEAN_MOTION": 1.00272559, "ECCENTRICITY": 0.0001203, "INCLINATION": 0.0171, "RA_OF_ASC_NODE": 300.3195, "ARG_OF_PERICENTER": 346.5253, "MEAN_ANOMALY": 346.9177, "EPHEMERIS_TYPE": 0, "CLASSIFICATION_TYPE": "U", "NORAD_CAT_ID": 39613, "ELEMENT_SET_NO": 999, "REV_AT_EPOCH": 4252, "BSTAR": 0, "MEAN_MOTION_DOT": -2.6e-06, "MEAN_MOTION_DDOT": 0}, "tle": {"line1": "1 39613U 14010B   25336.17393238 -.00000260  00000+0  00000+0 0  9990", "line2": "2 39613   0.0171 300.3195 0001203 346.5253 346.9177  1.00272559 42529"}}, "geometry": {"type": "Point", "coordinates": [14.102492899869095, 0.03801324402703333]}}, {"type": "Feature", "properties": {"norad_id": 39773, "name": "EUTELSAT 3B", "group": "eutelsat", "lat": -0.07405898997902201, "lon": -122.66825524806023, "alt_km": 35766.628388875484, "timestamp": "2025-12-02T10:50:46.944866+00:00", "meta": {"OBJECT_NAME": "EUTELSAT 3B", "OBJECT_ID": "2014-030A", "EPOCH": "2025-12-02T03:31:34.712256", "MEAN_MOTION": 1.00270567, "ECCENTRICITY": 0.0004754, "INCLINATION": 0.0627, "RA_OF_ASC_NODE": 358.4997, "ARG_OF_PERICENTER": 228.1115, "MEAN_ANOMALY": 260.6387, "EPHEMERIS_TYPE": 0, "CLASSIFICATION_TYPE": "U", "NORAD_CAT_ID": 39773, "ELEMENT_SET_NO": 999, "REV_AT_EPOCH": 4209, "BSTAR": 0, "MEAN_MOTION_DOT": 4.1e-07, "MEAN_MOTION_DDOT": 0}, "tle": {"line1": "1 39773U 14030A   25336.14692954  .00000041  00000+0  00000+0 0  9999", "line2": "2 39773   0.0627 358.4997 0004754 228.1115 260.6387  1.00270567 42096"}}, "geometry": {"type": "Point", "coordinates": [-122.66825524806023, -0.07405898997902201]}}, {"type": "Feature", "properties": {"norad_id": 40425, "name": "EUTELSAT 115 WEST B", "group": "eutelsat", "lat": -0.00401533354593817, "lon": 119.3212826358875, "alt_km": 35786.52561064802, "timestamp": "2025-12-02T10:50:46.944877+00:00", "meta": {"OBJECT_NAME": "EUTELSAT 115 WEST B", "OBJECT_ID": "2015-010B", "EPOCH": "2025-12-01T23:33:38.579328", "MEAN_MOTION": 1.00269195, "ECCENTRICITY": 1.92e-05, "INCLINATION": 0.0091, "RA_OF_ASC_NODE": 164.6167, "ARG_OF_PERICENTER": 243.8605, "MEAN_ANOMALY": 261.1263, "EPHEMERIS_TYPE": 0, "CLASSIFICATION_TYPE": "U", "NORAD_CAT_ID": 40425, "ELEMENT_SET_NO": 999, "REV_AT_EPOCH": 3941, "BSTAR": 0, "MEAN_MOTION_DOT": -3e-08, "MEAN_MOTION_DDOT": 0}, "tle": {"line1": "1 40425U 15010B   25335.98169652 -.00000003  00000+0  00000+0 0  9998", "line2": "2 40425   0.0091 164.6167 0000192 243.8605 261.1263  1.00269195 39419"}}, "geometry": {"type": "Point", "coordinates": [119.3212826358875, -0.00401533354593817]}}, {"type": "Feature", "properties": {"norad_id": 40875, "name": "EUTELSAT 8 WEST B", "group": "eutelsat", "lat": -0.08048022444411854, "lon": -133.79287507661505, "alt_km": 35770.7589624975, "timestamp": "2025-12-02T10:50:46.944889+00:00", "meta": {"OBJECT_NAME": "EUTELSAT 8 WEST B", "OBJECT_ID": "2015-039B", "EPOCH": "2025-12-02T03:28:27.511104", "MEAN_MOTION": 1.00271462, "ECCENTRICITY": 0.0004114, "INCLINATION": 0.0662, "RA_OF_ASC_NODE": 344.4918, "ARG_OF_PERICENTER": 269.5576, "MEAN_ANOMALY": 221.3249, "EPHEMERIS_TYPE": 0, "CLASSIFICATION_TYPE": "U", "NORAD_CAT_ID": 40875, "ELEMENT_SET_NO": 999, "REV_AT_EPOCH": 3768, "BSTAR": 0, "MEAN_MOTION_DOT": -4.5e-07, "MEAN_MOTION_DDOT": 0}, "tle": {"line1": "1 40875U 15039B   25336.14476286 -.00000045  00000+0  00000+0 0  9997", "line2": "2 40875   0.0662 344.4918 0004114 269.5576 221.3249  1.00271462 37683"}}, "geometry": {"type": "Point", "coordinates": [-133.79287507661505, -0.08048022444411854]}}, {"type": "Feature", "properties": {"norad_id": 41310, "name": "EUTELSAT 9B", "group": "eutelsat", "lat": -0.015357391078336209, "lon": -116.80889137456508, "alt_km": 35767.15276145245, "timestamp": "2025-12-02T10:50:46.944900+00:00", "meta": {"OBJECT_NAME": "EUTELSAT 9B", "OBJECT_ID": "2016-005A", "EPOCH": "2025-12-02T03:33:12.057408", "MEAN_MOTION": 1.00270948, "ECCENTRICITY": 0.0004828, "INCLINATION": 0.0621, "RA_OF_ASC_NODE": 74.5874, "ARG_OF_PERICENTER": 189.2685, "MEAN_ANOMALY": 229.6889, "EPHEMERIS_TYPE": 0, "CLASSIFICATION_TYPE": "U", "NORAD_CAT_ID": 41310, "ELEMENT_SET_NO": 999, "REV_AT_EPOCH": 3614, "BSTAR": 0, "MEAN_MOTION_DOT": 8.3e-07, "MEAN_MOTION_DDOT": 0}, "tle": {"line1": "1 41310U 16005A   25336.14805622  .00000083  00000+0  00000+0 0  9997", "line2": "2 41310   0.0621  74.5874 0004828 189.2685 229.6889  1.00270948 36145"}}, "geometry": {"type": "Point", "coordinates": [-116.80889137456508, -0.015357391078336209]}}, {"type": "Feature", "properties": {"norad_id": 41382, "name": "EUTELSAT 65 WEST A", "group": "eutelsat", "lat": -0.01949002913649637, "lon": 168.99473396874836, "alt_km": 35785.94715104149, "timestamp": "2025-12-02T10:50:46.944912+00:00", "meta": {"OBJECT_NAME": "EUTELSAT 65 WEST A", "OBJECT_ID": "2016-014A", "EPOCH": "2025-12-02T03:12:06.577344", "MEAN_MOTION": 1.00271225, "ECCENTRICITY": 0.0002707, "INCLINATION": 0.0508, "RA_OF_ASC_NODE": 340.6974, "ARG_OF_PERICENTER": 276.7584, "MEAN_ANOMALY": 156.6171, "EPHEMERIS_TYPE": 0, "CLASSIFICATION_TYPE": "U", "NORAD_CAT_ID": 41382, "ELEMENT_SET_NO": 999, "REV_AT_EPOCH": 3555, "BSTAR": 0, "MEAN_MOTION_DOT": -2.55e-06, "MEAN_MOTION_DDOT": 0}, "tle": {"line1": "1 41382U 16014A   25336.13340946 -.00000255  00000+0  00000+0 0  9990", "line2": "2 41382   0.0508 340.6974 0002707 276.7584 156.6171  1.00271225 35556"}}, "geometry": {"type": "Point", "coordinates": [168.99473396874836, -0.01949002913649637]}}, {"type": "Feature", "properties": {"norad_id": 41589, "name": "EUTELSAT 117 WEST B", "group": "eutelsat", "lat": -0.004975661207251788, "lon": 117.23570732174069, "alt_km": 35786.365353741145, "timestamp": "2025-12-02T10:50:46.944923+00:00", "meta": {"OBJECT_NAME": "EUTELSAT 117 WEST B", "OBJECT_ID": "2016-038B", "EPOCH": "2025-12-01T14:58:10.977024", "MEAN_MOTION": 1.00272248, "ECCENTRICITY": 1.08e-05, "INCLINATION": 0.0065, "RA_OF_ASC_NODE": 141.8344, "ARG_OF_PERICENTER": 143.4656, "MEAN_ANOMALY": 252.9964, "EPHEMERIS_TYPE": 0, "CLASSIFICATION_TYPE": "U", "NORAD_CAT_ID": 41589, "ELEMENT_SET_NO": 999, "REV_AT_EPOCH": 3468, "BSTAR": 0, "MEAN_MOTION_DOT": 1e-07, "MEAN_MOTION_DDOT": 0}, "tle": {"line1": "1 41589U 16038B   25335.62373816  .00000010  00000+0  00000+0 0  9998", "line2": "2 41589   0.0065 141.8344 0000108 143.4656 252.9964  1.00272248 34687"}}, "geometry": {"type": "Point", "coordinates": [117.23570732174069, -0.004975661207251788]}}]}